NORAD_CAT_ID,OBJECT_NAME,OBJECT_TYPE,EPOCH,MEAN_MOTION,ECCENTRICITY,INCLINATION,RA_OF_ASC_NODE,ARG_OF_PERICENTER,MEAN_ANOMALY,BSTAR,MEAN_MOTION_DOT,MEAN_MOTION_DDOT,TLE_LINE0,TLE_LINE1,TLE_LINE2,SEMIMAJOR_AXIS,PERIOD,APOGEE,PERIGEE,DECAYED
53527.0,STARLINK-4511,PAYLOAD,2024-06-28 03:59:22,15.08858654,0.0001589,53.2192,335.2697,129.8578,230.2554,-0.00022684,-3.898e-05,0.0,0 STARLINK-4511,1 53527U 22101A   24180.16622722 -.00003898  00000-0 -22684-3 0  9996,2 53527  53.2192 335.2697 0001589 129.8578 230.2554 15.08858654102637,6917.823,95.436,540.788,538.589,0.0
53527.0,STARLINK-4511,PAYLOAD,2024-06-28 13:31:40,15.08840241,0.0001401,53.2178,333.4868,94.7364,265.3788,0.00018796,2.705e-05,0.0,0 STARLINK-4511,1 53527U 22101A   24180.56366866  .00002705  00000-0  18796-3 0  9997,2 53527  53.2178 333.4868 0001401  94.7364 265.3788 15.08840241102694,6917.88,95.438,540.714,538.775,0.0
53527.0,STARLINK-4511,PAYLOAD,2024-06-28 16:42:26,15.08856626,0.0001447,53.2185,332.8914,109.6836,250.4313,0.00029823,4.464e-05,0.0,0 STARLINK-4511,1 53527U 22101A   24180.69613569  .00004464  00000-0  29823-3 0  9993,2 53527  53.2185 332.8914 0001447 109.6836 250.4313 15.08856626102713,6917.83,95.437,540.696,538.694,0.0
53527.0,STARLINK-4511,PAYLOAD,2024-06-29 13:22:28,15.08835955,0.000128,53.2181,329.0252,86.3578,273.7561,0.0001189,1.605e-05,0.0,0 STARLINK-4511,1 53527U 22101A   24181.55727727  .00001605  00000-0  11890-3 0  9990,2 53527  53.2181 329.0252 0001280  86.3578 273.7561 15.08835955102840,6917.893,95.438,540.643,538.872,0.0
53527.0,STARLINK-4511,PAYLOAD,2024-06-29 16:33:15,15.08838418,0.0001293,53.2169,328.4306,79.6448,280.469,0.00013414,1.848e-05,0.0,0 STARLINK-4511,1 53527U 22101A   24181.68975758  .00001848  00000-0  13414-3 0  9996,2 53527  53.2169 328.4306 0001293  79.6448 280.4690 15.08838418102861,6917.885,95.438,540.645,538.856,0.0
53527.0,STARLINK-4511,PAYLOAD,2024-06-30 14:48:39,15.08838768,0.0001456,53.218,324.2687,83.7703,276.3454,-2.9327e-05,-7.55e-06,0.0,0 STARLINK-4511,1 53527U 22101A   24182.61712221 -.00000755  00000-0 -29327-4 0  9993,2 53527  53.2180 324.2687 0001456  83.7703 276.3454 15.08838768103008,6917.884,95.438,540.756,538.742,0.0
53527.0,STARLINK-4511,PAYLOAD,2024-06-30 16:24:02,15.08843119,0.0001425,53.2179,323.9702,82.8135,277.302,3.9892e-06,-2.24e-06,0.0,0 STARLINK-4511,1 53527U 22101A   24182.68336009 -.00000224  00000-0  39892-5 0  9995,2 53527  53.2179 323.9702 0001425  82.8135 277.3020 15.08843119103012,6917.871,95.437,540.722,538.75,0.0
53527.0,STARLINK-4511,PAYLOAD,2024-07-01 14:39:26,15.08838548,0.0001229,53.2177,319.8111,67.7952,292.317,0.00015951,2.252e-05,0.0,0 STARLINK-4511,1 53527U 22101A   24183.61072049  .00002252  00000-0  15951-3 0  9990,2 53527  53.2177 319.8111 0001229  67.7952 292.3170 15.08838548103157,6917.885,95.438,540.6,538.9,0.0
53527.0,STARLINK-4511,PAYLOAD,2024-07-01 19:25:34,15.08848886,0.0001184,53.2167,318.9155,68.473,291.6388,0.00020398,2.961e-05,0.0,0 STARLINK-4511,1 53527U 22101A   24183.80943155  .00002961  00000-0  20398-3 0  9994,2 53527  53.2167 318.9155 0001184  68.4730 291.6388 15.08848886103188,6917.853,95.437,540.537,538.899,0.0
53527.0,STARLINK-4511,PAYLOAD,2024-07-02 01:47:07,15.088425,0.000126,53.215,317.7226,55.2909,304.8202,0.00010935,1.453e-05,0.0,0 STARLINK-4511,1 53527U 22101A   24184.07439742  .00001453  00000-0  10935-3 0  9997,2 53527  53.2150 317.7226 0001260  55.2909 304.8202 15.08842500103227,6917.873,95.437,540.609,538.866,0.0
53527.0,STARLINK-4511,PAYLOAD,2024-07-02 12:54:50,15.08835336,0.0001078,53.2166,315.6477,85.7695,274.342,8.622e-05,1.084e-05,0.0,0 STARLINK-4511,1 53527U 22101A   24184.53808578  .00001084  00000-0  86220-4 0  9996,2 53527  53.2166 315.6477 0001078  85.7695 274.3420 15.08835336103295,6917.895,95.438,540.505,539.014,0.0
53527.0,STARLINK-4511,PAYLOAD,2024-07-02 14:30:13,15.08836581,0.0001121,53.2171,315.3503,84.5739,275.5381,9.6427e-05,1.247e-05,0.0,0 STARLINK-4511,1 53527U 22101A   24184.60432527  .00001247  00000-0  96427-4 0  9992,2 53527  53.2171 315.3503 0001121  84.5739 275.5381 15.08836581103307,6917.891,95.438,540.531,538.98,0.0
53527.0,STARLINK-4511,PAYLOAD,2024-07-02 17:40:59,15.08847553,0.0001146,53.2167,314.7534,82.9893,277.123,0.0001652,2.343e-05,0.0,0 STARLINK-4511,1 53527U 22101A   24184.73679669  .00002343  00000-0  16520-3 0  9999,2 53527  53.2167 314.7534 0001146  82.9893 277.1230 15.08847553103323,6917.857,95.437,540.515,538.93,0.0
53527.0,STARLINK-4511,PAYLOAD,2024-07-03 01:37:55,15.08837346,0.0001372,53.2163,313.2678,82.4834,277.6314,4.184e-06,-2.21e-06,0.0,0 STARLINK-4511,1 53527U 22101A   24185.06800273 -.00000221  00000-0  41840-5 0  9992,2 53527  53.2163 313.2678 0001372  82.4834 277.6314 15.08837346103375,6917.889,95.438,540.703,538.804,0.0
53527.0,STARLINK-4511,PAYLOAD,2024-07-03 14:21:00,15.08840894,0.0001336,53.2175,310.8898,88.1895,271.925,3.8558e-06,-2.27e-06,0.0,0 STARLINK-4511,1 53527U 22101A   24185.59792616 -.00000227  00000-0  38558-5 0  9999,2 53527  53.2175 310.8898 0001336  88.1895 271.9250 15.08840894103452,6917.878,95.437,540.667,538.818,0.0
53527.0,STARLINK-4511,PAYLOAD,2024-07-04 12:36:24,15.08836811,0.000144,53.2184,306.7276,91.1201,268.9956,8.7977e-05,1.112e-05,0.0,0 STARLINK-4511,1 53527U 22101A   24186.52528755  .00001112  00000-0  87977-4 0  9995,2 53527  53.2184 306.7276 0001440  91.1201 268.9956 15.08836811103595,6917.89,95.438,540.751,538.759,0.0
53527.0,STARLINK-4511,PAYLOAD,2024-07-04 14:11:47,15.08837318,0.0001088,53.2165,306.4295,97.5642,262.5474,7.2746e-05,8.7e-06,0.0,0 STARLINK-4511,1 53527U 22101A   24186.59152647  .00000870  00000-0  72746-4 0  9993,2 53527  53.2165 306.4295 0001088  97.5642 262.5474 15.08837318103609,6917.889,95.438,540.506,539.001,0.0
53527.0,STARLINK-4511,PAYLOAD,2024-07-04 17:22:33,15.08843554,0.0001059,53.2143,305.8329,96.8086,263.3026,0.0001038,1.365e-05,0.0,0 STARLINK-4511,1 53527U 22101A   24186.72400123  .00001365  00000-0  10380-3 0  9998,2 53527  53.2143 305.8329 0001059  96.8086 263.3026 15.08843554103621,6917.87,95.437,540.467,539.002,0.0
53527.0,STARLINK-4511,PAYLOAD,2024-07-05 01:19:29,15.08838413,0.0001295,53.2166,304.346,84.542,275.572,6.1274e-05,6.87e-06,0.0,0 STARLINK-4511,1 53527U 22101A   24187.05520682  .00000687  00000-0  61274-4 0  9993,2 53527  53.2166 304.3460 0001295  84.5420 275.5720 15.08838413103673,6917.885,95.438,540.646,538.854,0.0
53527.0,STARLINK-4511,PAYLOAD,2024-07-05 14:02:34,15.08842661,0.0001235,53.2174,301.9695,84.2214,275.8919,0.00013017,1.785e-05,0.0,0 STARLINK-4511,1 53527U 22101A   24187.58512329  .00001785  00000-0  13017-3 0  9991,2 53527  53.2174 301.9695 0001235  84.2214 275.8919 15.08842661103759,6917.872,95.437,540.592,538.883,0.0
53527.0,STARLINK-4511,PAYLOAD,2024-07-06 01:10:16,15.08846267,0.0001158,53.2156,299.8878,82.3236,277.7888,0.00010601,1.4e-05,0.0,0 STARLINK-4511,1 53527U 22101A   24188.04880013  .00001400  00000-0  10601-3 0  9991,2 53527  53.2156 299.8878 0001158  82.3236 277.7888 15.08846267103824,6917.861,95.437,540.527,538.925,0.0
53527.0,STARLINK-4511,PAYLOAD,2024-07-06 12:17:59,15.0882949,0.0001181,53.2183,297.8047,96.6674,263.4453,0.00010253,1.344e-05,0.0,0 STARLINK-4511,1 53527U 22101A   24188.51249080  .00001344  00000-0  10253-3 0  9996,2 53527  53.2183 297.8047 0001181  96.6674 263.4453 15.08829490103896,6917.913,95.438,540.595,538.961,0.0
53527.0,STARLINK-4511,PAYLOAD,2024-07-06 13:53:22,15.08840018,0.0001442,53.2187,297.5073,98.5347,261.5808,-9.5651e-06,-4.4e-06,0.0,0 STARLINK-4511,1 53527U 22101A   24188.57872704 -.00000440  00000-0 -95651-5 0  9992,2 53527  53.2187 297.5073 0001442  98.5347 261.5808 15.08840018103908,6917.88,95.438,540.743,538.748,0.0
53527.0,STARLINK-4511,PAYLOAD,2024-07-06 17:04:08,15.08842809,0.0001439,53.2186,296.912,98.7479,261.3677,5.7775e-06,-1.96e-06,0.0,0 STARLINK-4511,1 53527U 22101A   24188.71120443 -.00000196  00000-0  57775-5 0  9996,2 53527  53.2186 296.9120 0001439  98.7479 261.3677 15.08842809103921,6917.872,95.437,540.732,538.741,0.0
53527.0,STARLINK-4511,PAYLOAD,2024-07-07 13:44:08,15.08843169,0.0001359,53.2184,293.0468,93.0145,267.1002,-4.0874e-06,-3.53e-06,0.0,0 STARLINK-4511,1 53527U 22101A   24189.57232607 -.00000353  00000-0 -40874-5 0  9995,2 53527  53.2184 293.0468 0001359  93.0145 267.1002 15.08843169104052,6917.871,95.437,540.676,538.796,0.0
53527.0,STARLINK-4511,PAYLOAD,2024-07-08 13:34:56,15.08839425,0.0001292,53.2173,288.588,86.6259,273.488,0.00011773,1.586e-05,0.0,0 STARLINK-4511,1 53527U 22101A   24190.56592679  .00001586  00000-0  11773-3 0  9995,2 53527  53.2173 288.5880 0001292  86.6259 273.4880 15.08839425104208,6917.882,95.438,540.641,538.853,0.0
53527.0,STARLINK-4511,PAYLOAD,2024-07-09 13:25:43,15.08838587,0.0001324,53.2175,284.13,97.1439,262.9704,8.0436e-05,9.92e-06,0.0,0 STARLINK-4511,1 53527U 22101A   24191.55952986  .00000992  00000-0  80436-4 0  9999,2 53527  53.2175 284.1300 0001324  97.1439 262.9704 15.08838587104354,6917.885,95.438,540.666,538.834,0.0
53527.0,STARLINK-4511,PAYLOAD,2024-07-10 10:05:44,15.08837618,0.0001356,53.2187,280.2644,95.5946,264.5201,1.4591e-05,-5.6e-07,0.0,0 STARLINK-4511,1 53527U 22101A   24192.42065369 -.00000056  00000-0  14591-4 0  9997,2 53527  53.2187 280.2644 0001356  95.5946 264.5201 15.08837618104483,6917.888,95.438,540.691,538.815,0.0
53527.0,STARLINK-4511,PAYLOAD,2024-07-10 14:51:53,15.08842532,0.0001441,53.2186,279.3734,102.986,257.1293,4.7024e-05,4.61e-06,0.0,0 STARLINK-4511,1 53527U 22101A   24192.61936963  .00000461  00000-0  47024-4 0  9991,2 53527  53.2186 279.3734 0001441 102.9860 257.1293 15.08842532104518,6917.873,95.437,540.735,538.741,0.0
53527.0,STARLINK-4511,PAYLOAD,2024-07-11 13:07:17,15.08837964,0.0001309,53.2177,275.2071,75.8204,284.2933,1.2886e-05,-8.3e-07,0.0,0 STARLINK-4511,1 53527U 22101A   24193.54673590 -.00000083  00000-0  12886-4 0  9997,2 53527  53.2177 275.2071 0001309  75.8204 284.2933 15.08837964104650,6917.887,95.438,540.657,538.846,0.0
